TIANLIAN 2-02           
1 50005U 21124A   25302.50496455 -.00000004  00000+0  00000+0 0  9993
2 50005   0.1997  92.4016 0004794 152.3094 146.1466  1.00271868 14307
TURKSAT 5B              
1 50212U 21126A   25300.12470311  .00000157  00000+0  00000+0 0  9992
2 50212   0.0761 333.1349 0002905 319.1941 190.3409  1.00272525 13965
INMARSAT 6-F1           
1 50319U 21128A   25300.41841929 -.00000160  00000+0  00000+0 0  9996
2 50319   0.0166 250.9421 0000287 224.5763 154.9311  1.00268556 13924
SHIYAN-12 01 (SY-12 01) 
1 50321U 21129A   25302.73241117 -.00000316  00000+0  00000+0 0  9993
2 50321   3.0754  83.1183 0002886 182.3613 164.3744  1.00441863 14184
SHIYAN-12 02 (SY-12 02) 
1 50322U 21129B   25302.73319447 -.00000328  00000+0  00000+0 0  9999
2 50322   3.0749  83.1149 0002821 171.8608 159.1294  1.00099160 14188
TJS-9                   
1 50574U 21135A   25302.53377932 -.00000288  00000+0  00000+0 0  9991
2 50574   0.0831  78.9998 0002900 218.1894  70.3498  1.00273228 14112
USA 324                 
1 51280U 22006A   25293.76578295  .00000067  00000+0  00000+0 0  9997
2 51280   0.1916  80.0148 0000628 145.2795  79.8861  1.00676150 13734
USA 325                 
1 51281U 22006B   25293.78389638 -.00000278  00000+0  00000+0 0  9996
2 51281   0.3238  87.9116 0008141  89.0589 226.4785  1.00492472 13726
GOES 18                 
1 51850U 22021A   25302.52180229  .00000106  00000+0  00000+0 0  9992
2 51850   0.0486  72.3675 0000356 189.3282 187.2862  1.00270902  4274
ZHONGXING-6D            
1 52255U 22038A   25301.54944084 -.00000343  00000+0  00000+0 0  9992
2 52255   0.0550 257.1470 0002905 348.2398 114.6184  1.00269138 13100
NILESAT 301             
1 52817U 22061A   25300.68579645 -.00000046  00000+0  00000+0 0  9993
2 52817   0.0596  40.9779 0002216 198.3037  36.9538  1.00273167 12401
CMS-02 (GSAT 24)        
1 52903U 22067A   25302.34471705 -.00000155  00000+0  00000+0 0  9999
2 52903   0.0104 234.8499 0003487  21.8368 348.3465  1.00270252 12291
MEASAT 3D               
1 52904U 22067B   25300.86024037 -.00000231  00000+0  00000+0 0  9992
2 52904   0.0397  22.8468 0002712 237.7248 177.1162  1.00270776 12318
SES-22                  
1 52933U 22071A   25301.65865028  .00000114  00000+0  00000+0 0  9999
2 52933   0.0148 270.6466 0000949 315.8236 268.9477  1.00274842  5206
WFOV (USA 332)          
1 52940U 22073A   25302.53817471 -.00000350  00000+0  00000+0 0  9999
2 52940   3.1135  81.4953 0001941  86.4238 183.2457  1.00271049 12053
TIANLIAN 2-03           
1 53100U 22078A   25302.25910000  .00000082  00000+0  00000+0 0  9995
2 53100   0.1166  33.1310 0003185 217.9712 250.6388  1.00271606 12235
SBIRS GEO-6 (USA 336)   
1 53355U 22092A   25301.57102980 -.00000285  00000+0  00000+0 0  9993
2 53355   3.6718 314.2221 0001893 258.9335 168.6090  1.00271745 11918
EUTELSAT KONNECT VHTS   
1 53765U 22110A   25300.29975054  .00000028  00000+0  00000+0 0  9991
2 53765   0.0560  92.3300 0002506  95.0622 319.1546  1.00267053  4493
ZHONGXING-1E            
1 53813U 22112A   25297.78600400 -.00000138  00000+0  00000+0 0  9999
2 53813   0.0287 321.8200 0004487 295.2373 140.7856  1.00272457 11482
SES-20                  
1 53960U 22123A   25300.38135116 -.00000090  00000+0  00000+0 0  9999
2 53960   0.0406  78.2087 0001600  30.7497 321.2502  1.00270018 11190
SES-21                  
1 53961U 22123B   25300.58984685  .00000080  00000+0  00000+0 0  9993
2 53961   0.0331  67.1598 0001072 148.9375 261.4709  1.00270238  4888
GALAXY 33 (G-33)        
1 54026U 22128A   25302.52340147  .00000089  00000+0  00000+0 0  9995
2 54026   0.0141 275.4786 0001753 287.8187 250.2604  1.00270905 11433
GALAXY 34 (G-34)        
1 54027U 22128B   25302.52509324  .00000000  00000+0  00000+0 0  9993
2 54027   0.0225 256.7357 0001501 325.4899 235.9896  1.00270830 11602
ANGOSAT 2               
1 54033U 22131A   25302.54699811  .00000145  00000+0  00000+0 0  9997
2 54033   0.0170 225.3744 0000983  45.4099 347.2859  1.00270331 11167
EUTELSAT HOTBIRD 13F    
1 54048U 22134A   25299.83348505  .00000099  00000+0  00000+0 0  9992
2 54048   0.0544 283.9159 0002000  86.3003 338.3294  1.00273222 11031
LDPE-2                  
1 54219U 22144A   25302.52822720  .00000044  00000+0  00000+0 0  9990
2 54219   5.0838  65.2912 0001009 246.5827 103.2066  1.02052552  9500
EUTELSAT HOTBIRD 13G    
1 54225U 22146A   25299.83348505  .00000099  00000+0  00000+0 0  9992
2 54225   0.0466 238.1969 0002094 290.6077 179.7137  1.00273063  5125
ZHONGXING-19            
1 54230U 22148A   25302.56592057 -.00000069  00000+0  00000+0 0  9996
2 54230   0.0117 253.2744 0007910 339.7624 172.2602  1.00271531 11061
GALAXY 31 (G-31)        
1 54243U 22153A   25302.52908882  .00000023  00000+0  00000+0 0  9998
2 54243   0.0167 239.9918 0001562 350.4789 237.1410  1.00273034  4827
GALAXY 32 (G-32)        
1 54244U 22153B   25302.45200999 -.00000165  00000+0  00000+0 0  9993
2 54244   0.0137 289.0383 0001228   0.9745 179.7751  1.00271300 10836
EUTELSAT 10B            
1 54259U 22157A   25300.68917646  .00000079  00000+0  00000+0 0  9993
2 54259   0.0579  89.6304 0001606  40.3081 164.5024  1.00269884 10693
GALAXY 35 (G-35)        
1 54741U 22170A   25302.49350360 -.00000153  00000+0  00000+0 0  9993
2 54741   0.0218 249.0189 0002099 331.5783 262.0642  1.00272787 10587
GALAXY 36 (G-36)        
1 54742U 22170B   25301.50794802 -.00000175  00000+0  00000+0 0  9992
2 54742   0.0085 211.6489 0001103 305.5434 333.7969  1.00270579 10458
METEOSAT-12 (MTG-I1)    
1 54743U 22170C   25301.61479671  .00000005  00000+0  00000+0 0  9990
2 54743   0.7147  31.9755 0001328 139.1527  87.1925  1.00276178 10652
SHIJIAN-23 (SJ-23)      
1 55131U 23002A   25302.69054501  .00000166  00000+0  00000+0 0  9995
2 55131   3.1211  81.2424 0000431 287.1745 305.5579  1.00457897 10194
APSTAR-6E               
1 55239U 23005A   25301.92680188 -.00000308  00000+0  00000+0 0  9997
2 55239   0.0149 227.4135 0004059   4.3539 273.4300  1.00268862 16386
USA 342                 
1 55263U 23008A   25301.47673597  .00000149  00000+0  00000+0 0  9995
2 55263   0.0120 266.6598 0000457   3.2271 322.6354  1.00272295 10193
LDPE-3A                 
1 55264U 23008B   25302.26438671  .00000149  00000+0  00000+0 0  9996
2 55264   1.6807  84.0419 0000539 141.0935 305.2596  1.00565479  9503
ELEKTRO-L 4             
1 55506U 23016A   25301.43648269 -.00000047  00000+0  00000+0 0  9996
2 55506   0.0627 237.1732 0002847   4.0615 118.7721  1.00273837 10010
AMAZONAS NEXUS          
1 55508U 23017A   25301.74531741 -.00000272  00000+0  00000+0 0  9999
2 55508   0.0451  49.4595 0001481 139.3137  55.9097  1.00270018  4729
ZHONGXING-26            
1 55686U 23023A   25301.85365131 -.00000344  00000+0  00000+0 0  9993
2 55686   0.0571  69.1176 0000530  73.3622 327.3735  1.00268152  9910
LUCH-5X (OLYMP-K 2)     
1 55841U 23031A   25302.73551257  .00000043  00000+0  00000+0 0  9994
2 55841   0.0316  85.5295 0001061 301.5191 338.0512  1.00271913  9620
GAOFEN-13 02            
1 55912U 23036A   25301.49697525 -.00000208  00000+0  00000+0 0  9993
2 55912   1.1355 333.1132 0003019 332.6382  58.5572  1.00272652  9775
SES-18                  
1 55970U 23038A   25302.18737807 -.00000091  00000+0  00000+0 0  9994
2 55970   0.0214 269.2520 0002726 332.9620 119.9289  1.00270139  9789
SES-19                  
1 55971U 23038B   25302.52261796  .00000097  00000+0  00000+0 0  9997
2 55971   0.0112 309.3433 0001534 270.5088 231.5269  1.00273662  9768
INTELSAT 40E (IS-40E)   
1 56174U 23052A   25302.45200927 -.00000164  00000+0  00000+0 0  9996
2 56174   0.0150 238.3717 0002296 321.7520 269.6486  1.00270666  9515
VIASAT-3                
1 56370U 23060A   25300.46008010 -.00000175  00000+0  00000+0 0  9993
2 56370   0.0239 279.7897 0000041 260.3140 292.6837  1.00271422  9103
ARCTURUS                
1 56371U 23060B   25302.40808860 -.00000158  00000+0  00000+0 0  9992
2 56371   2.1785  82.8259 0000972 207.4835 232.4954  1.00270515  9142
GS-1                    
1 56372U 23060C   25301.86431383 -.00000020  00000+0  00000+0 0  9992
2 56372   2.1270  82.5370 0003197 245.4319  89.1877  1.00302081  5213
BEIDOU-3 G4             
1 56564U 23066A   25302.54504166 -.00000102  00000+0  00000+0 0  9998
2 56564   0.9171 298.6452 0004634 221.4068 234.3054  1.00273054  9082
ARABSAT-7B (BADR-8)     
1 56757U 23075A   25302.47610441  .00000155  00000+0  00000+0 0  9995
2 56757   0.0763  28.6359 0001887 309.8763 256.9781  1.00270801  8804
NVS-01 (IRNSS-1J)       
1 56759U 23076A   25302.42540412 -.00000328  00000+0  00000+0 0  9996
2 56759   2.7330 253.1307 0007057 349.7924  77.9439  1.00272302  8809
NUSANTARA TIGA (SATRIA) 
1 57045U 23086A   25299.85991852 -.00000223  00000+0  00000+0 0  9990
2 57045   0.0439 335.8549 0004010 310.5847 204.6316  1.00269927  7420
H2SAT (HEINRICH HERTZ)  
1 57213U 23093A   25301.82912450 -.00000069  00000+0  00000+0 0  9991
2 57213   0.0336 225.3793 0001762  66.4383  45.2959  0.99793009  8591
SYRACUSE 4B             
1 57214U 23093B   25300.30531097 -.00000043  00000+0  00000+0 0  9990
2 57214   0.0173 246.9374 0000149 184.6515  67.7442  1.00270283  4637
JUPITER 3 (ECHOSTAR 24) 
1 57479U 23108A   25300.16505863 -.00000139  00000+0  00000+0 0  9992
2 57479   0.0135 255.4684 0001334 322.0091 142.5489  1.00270844  8316
GALAXY 37 (G-37)        
1 57493U 23112A   25302.52587786  .00000000  00000+0  00000+0 0  9995
2 57493   0.0105 258.8501 0002065 325.5415 236.0239  1.00270439  8237
LUDI TANCE-4 01A        
1 57624U 23120A   25302.71295822 -.00000182  00000+0  00000+0 0  9990
2 57624  15.2687 199.6847 0005310  67.6769 117.3505  1.00269868  8234
TJS-10                  
1 58204U 23169A   25302.73041458  .00000014  00000+0  00000+0 0  9997
2 58204   1.9448  83.2550 0005233 149.1237 241.9196  1.00271251  7233
